[{"OBJECT_NAME":"STARLINK-3349","OBJECT_ID":"2022-001L","EPOCH":"2026-03-09T11:24:24.163488","MEAN_MOTION":15.3598126,"ECCENTRICITY":0.00040972,"INCLINATION":53.2075,"RA_OF_ASC_NODE":124.5069,"ARG_OF_PERICENTER":337.7117,"MEAN_ANOMALY":22.3708,"EPHEMERIS_TYPE":0,"CLASSIFICATION_TYPE":"U","NORAD_CAT_ID":50813,"ELEMENT_SET_NO":999,"REV_AT_EPOCH":23102,"BSTAR":0.0012714399,"MEAN_MOTION_DOT":0.00045078,"MEAN_MOTION_DDOT":0},{"OBJECT_NAME":"ALTAIR (RS65S)","OBJECT_ID":"2024-199AW","EPOCH":"2026-03-09T21:31:54.569568","MEAN_MOTION":15.34998047,"ECCENTRICITY":0.00120363,"INCLINATION":97.3179,"RA_OF_ASC_NODE":298.9542,"ARG_OF_PERICENTER":307.5319,"MEAN_ANOMALY":52.483,"EPHEMERIS_TYPE":0,"CLASSIFICATION_TYPE":"U","NORAD_CAT_ID":61779,"ELEMENT_SET_NO":999,"REV_AT_EPOCH":12187,"BSTAR":0.00027541775,"MEAN_MOTION_DOT":9.293e-5,"MEAN_MOTION_DDOT":0}]
